start=new Date('2022-08-29T00:00:00.000Z').valueOf();
sats=[{"RA_OF_ASC_NODE":"54.6398","MEAN_ELEMENT_THEORY":"SGP4","BSTAR":"0.00093813000000","MEAN_MOTION":"15.08833747","EPHEMERIS_TYPE":"0","TIME_SYSTEM":"UTC","PERIAPSIS":"538.503","FILE":"3550014","APOAPSIS":"541.026","TLE_LINE1":"1 51960U 22025E   22240.91667824  .00014671  00000-0  93813-3 0  9991","CENTER_NAME":"EARTH","MEAN_ANOMALY":"71.2107","GP_ID":"211213031","ECCENTRICITY":"0.00018230","SEMIMAJOR_AXIS":"6917.900","MEAN_MOTION_DOT":"0.00014671","COUNTRY_CODE":"US","OBJECT_TYPE":"PAYLOAD","MEAN_MOTION_DDOT":"0.0000000000000","TLE_LINE2":"2 51960  53.2167  54.6398 0001823  54.5590  71.2107 15.08833747  1302","ELEMENT_SET_NO":"999","RCS_SIZE":"LARGE","PERIOD":"95.438","SITE":"AFETR","DECAY_DATE":null,"EPOCH":"2022-08-28T22:00:00.999936","ARG_OF_PERICENTER":"54.5590","CLASSIFICATION_TYPE":"U","OBJECT_NAME":"STARLINK-3691","LAUNCH_DATE":"2022-03-09","REF_FRAME":"TEME","NORAD_CAT_ID":"51960","REV_AT_EPOCH":"130","OBJECT_ID":"2022-025E","INCLINATION":"53.2167"},{"MEAN_ELEMENT_THEORY":"SGP4","BSTAR":"0.00283130000000","RA_OF_ASC_NODE":"54.6520","TIME_SYSTEM":"UTC","EPHEMERIS_TYPE":"0","MEAN_MOTION":"15.08813165","PERIAPSIS":"538.757","FILE":"3550014","APOAPSIS":"540.898","TLE_LINE1":"1 51961U 22025F   22240.91667824  .00045027  00000-0  28313-2 0  9993","CENTER_NAME":"EARTH","MEAN_ANOMALY":"349.2566","GP_ID":"211213281","ECCENTRICITY":"0.00015470","MEAN_MOTION_DOT":"0.00045027","SEMIMAJOR_AXIS":"6917.962","MEAN_MOTION_DDOT":"0.0000000000000","OBJECT_TYPE":"PAYLOAD","COUNTRY_CODE":"US","TLE_LINE2":"2 51961  53.2169  54.6520 0001547  56.5198 349.2566 15.08813165  1300","ELEMENT_SET_NO":"999","PERIOD":"95.439","RCS_SIZE":"LARGE","SITE":"AFETR","DECAY_DATE":null,"ARG_OF_PERICENTER":"56.5198","EPOCH":"2022-08-28T22:00:00.999936","CLASSIFICATION_TYPE":"U","OBJECT_NAME":"STARLINK-3689","LAUNCH_DATE":"2022-03-09","REF_FRAME":"TEME","REV_AT_EPOCH":"130","NORAD_CAT_ID":"51961","OBJECT_ID":"2022-025F","INCLINATION":"53.2169"},{"GP_ID":"211214533","ECCENTRICITY":"0.00019540","MEAN_MOTION_DOT":"0.00050907","SEMIMAJOR_AXIS":"6917.969","MEAN_MOTION_DDOT":"0.0000000000000","COUNTRY_CODE":"US","OBJECT_TYPE":"PAYLOAD","TLE_LINE2":"2 51962  53.2179  54.6433 0001954  49.3542 111.2067 15.08810980  1305","ELEMENT_SET_NO":"999","BSTAR":"0.00319620000000","MEAN_ELEMENT_THEORY":"SGP4","RA_OF_ASC_NODE":"54.6433","TIME_SYSTEM":"UTC","EPHEMERIS_TYPE":"0","MEAN_MOTION":"15.08810980","PERIAPSIS":"538.482","FILE":"3550014","TLE_LINE1":"1 51962U 22025G   22240.91667824  .00050907  00000-0  31962-2 0  9991","APOAPSIS":"541.186","CENTER_NAME":"EARTH","MEAN_ANOMALY":"111.2067","LAUNCH_DATE":"2022-03-09","REF_FRAME":"TEME","REV_AT_EPOCH":"130","NORAD_CAT_ID":"51962","OBJECT_ID":"2022-025G","INCLINATION":"53.2179","PERIOD":"95.439","RCS_SIZE":"LARGE","SITE":"AFETR","DECAY_DATE":null,"ARG_OF_PERICENTER":"49.3542","EPOCH":"2022-08-28T22:00:00.999936","CLASSIFICATION_TYPE":"U","OBJECT_NAME":"STARLINK-3697"},{"COUNTRY_CODE":"US","OBJECT_TYPE":"PAYLOAD","MEAN_MOTION_DDOT":"0.0000000000000","TLE_LINE2":"2 51963  53.2177  54.6588 0001445  59.6568   6.0979 15.08829660  1300","ELEMENT_SET_NO":"999","GP_ID":"211214780","ECCENTRICITY":"0.00014450","SEMIMAJOR_AXIS":"6917.912","MEAN_MOTION_DOT":"0.00023054","TLE_LINE1":"1 51963U 22025H   22240.91667824  .00023054  00000-0  14623-2 0  9990","APOAPSIS":"540.777","CENTER_NAME":"EARTH","MEAN_ANOMALY":"6.0979","RA_OF_ASC_NODE":"54.6588","BSTAR":"0.00146230000000","MEAN_ELEMENT_THEORY":"SGP4","MEAN_MOTION":"15.08829660","TIME_SYSTEM":"UTC","EPHEMERIS_TYPE":"0","FILE":"3550014","PERIAPSIS":"538.777","NORAD_CAT_ID":"51963","REV_AT_EPOCH":"130","OBJECT_ID":"2022-025H","INCLINATION":"53.2177","LAUNCH_DATE":"2022-03-09","REF_FRAME":"TEME","CLASSIFICATION_TYPE":"U","OBJECT_NAME":"STARLINK-3675","RCS_SIZE":"LARGE","PERIOD":"95.438","SITE":"AFETR","DECAY_DATE":null,"EPOCH":"2022-08-28T22:00:00.999936","ARG_OF_PERICENTER":"59.6568"},{"SITE":"AFETR","RCS_SIZE":"LARGE","PERIOD":"95.439","EPOCH":"2022-08-28T22:00:00.999936","ARG_OF_PERICENTER":"50.3129","DECAY_DATE":null,"OBJECT_NAME":"STARLINK-3690","CLASSIFICATION_TYPE":"U","LAUNCH_DATE":"2022-03-09","REF_FRAME":"TEME","NORAD_CAT_ID":"51964","REV_AT_EPOCH":"130","INCLINATION":"53.2179","OBJECT_ID":"2022-025J","MEAN_MOTION":"15.08825008","TIME_SYSTEM":"UTC","EPHEMERIS_TYPE":"0","RA_OF_ASC_NODE":"54.6406","BSTAR":"0.00172120000000","MEAN_ELEMENT_THEORY":"SGP4","PERIAPSIS":"538.333","FILE":"3550014","CENTER_NAME":"EARTH","TLE_LINE1":"1 51964U 22025J   22240.91667824  .00027200  00000-0  17212-2 0  9995","APOAPSIS":"541.250","MEAN_ANOMALY":"155.4487","GP_ID":"211213532","SEMIMAJOR_AXIS":"6917.926","MEAN_MOTION_DOT":"0.00027200","ECCENTRICITY":"0.00021080","TLE_LINE2":"2 51964  53.2179  54.6406 0002108  50.3129 155.4487 15.08825008  1305","OBJECT_TYPE":"PAYLOAD","COUNTRY_CODE":"US","MEAN_MOTION_DDOT":"0.0000000000000","ELEMENT_SET_NO":"999"},{"REF_FRAME":"TEME","LAUNCH_DATE":"2022-03-09","INCLINATION":"53.2180","OBJECT_ID":"2022-025K","REV_AT_EPOCH":"130","NORAD_CAT_ID":"51965","ARG_OF_PERICENTER":"54.7827","EPOCH":"2022-08-28T22:00:00.999936","DECAY_DATE":null,"SITE":"AFETR","PERIOD":"95.438","RCS_SIZE":"LARGE","OBJECT_NAME":"STARLINK-3696","CLASSIFICATION_TYPE":"U","MEAN_MOTION_DOT":"0.00003915","SEMIMAJOR_AXIS":"6917.884","ECCENTRICITY":"0.00015820","GP_ID":"211213782","ELEMENT_SET_NO":"999","TLE_LINE2":"2 51965  53.2180  54.6444 0001582  54.7827  90.9819 15.08838876  1307","MEAN_MOTION_DDOT":"0.0000000000000","COUNTRY_CODE":"US","OBJECT_TYPE":"PAYLOAD","FILE":"3550014","PERIAPSIS":"538.654","TIME_SYSTEM":"UTC","EPHEMERIS_TYPE":"0","MEAN_MOTION":"15.08838876","BSTAR":"0.00026393000000","MEAN_ELEMENT_THEORY":"SGP4","RA_OF_ASC_NODE":"54.6444","MEAN_ANOMALY":"90.9819","CENTER_NAME":"EARTH","TLE_LINE1":"1 51965U 22025K   22240.91667824  .00003915  00000-0  26393-3 0  9994","APOAPSIS":"540.843"},{"MEAN_MOTION":"15.08818567","EPHEMERIS_TYPE":"0","TIME_SYSTEM":"UTC","RA_OF_ASC_NODE":"54.6383","BSTAR":"0.00300420000000","MEAN_ELEMENT_THEORY":"SGP4","PERIAPSIS":"538.667","FILE":"3550014","CENTER_NAME":"EARTH","APOAPSIS":"540.954","TLE_LINE1":"1 51966U 22025L   22240.91667824  .00047820  00000-0  30042-2 0  9993","MEAN_ANOMALY":"181.3309","GP_ID":"211214033","SEMIMAJOR_AXIS":"6917.946","MEAN_MOTION_DOT":"0.00047820","ECCENTRICITY":"0.00016530","TLE_LINE2":"2 51966  53.2175  54.6383 0001653  64.4188 181.3309 15.08818567  1305","COUNTRY_CODE":"US","OBJECT_TYPE":"PAYLOAD","MEAN_MOTION_DDOT":"0.0000000000000","ELEMENT_SET_NO":"999","SITE":"AFETR","RCS_SIZE":"MEDIUM","PERIOD":"95.439","EPOCH":"2022-08-28T22:00:00.999936","ARG_OF_PERICENTER":"64.4188","DECAY_DATE":null,"OBJECT_NAME":"STARLINK-3699","CLASSIFICATION_TYPE":"U","LAUNCH_DATE":"2022-03-09","REF_FRAME":"TEME","NORAD_CAT_ID":"51966","REV_AT_EPOCH":"130","INCLINATION":"53.2175","OBJECT_ID":"2022-025L"},{"PERIOD":"92.763","RCS_SIZE":"MEDIUM","SITE":"AFETR","DECAY_DATE":null,"ARG_OF_PERICENTER":"233.4014","EPOCH":"2022-08-28T22:00:00.999936","CLASSIFICATION_TYPE":"U","OBJECT_NAME":"STARLINK-3695","LAUNCH_DATE":"2022-03-09","REF_FRAME":"TEME","REV_AT_EPOCH":"130","NORAD_CAT_ID":"51967","OBJECT_ID":"2022-025M","INCLINATION":"53.2116","BSTAR":"0.00058924000000","MEAN_ELEMENT_THEORY":"SGP4","RA_OF_ASC_NODE":"26.3395","EPHEMERIS_TYPE":"0","TIME_SYSTEM":"UTC","MEAN_MOTION":"15.52340305","PERIAPSIS":"407.618","FILE":"3550014","APOAPSIS":"412.176","TLE_LINE1":"1 51967U 22025M   22240.91667824  .00036211  00000-0  58924-3 0  9996","CENTER_NAME":"EARTH","MEAN_ANOMALY":"294.0176","GP_ID":"211214280","ECCENTRICITY":"0.00033580","MEAN_MOTION_DOT":"0.00036211","SEMIMAJOR_AXIS":"6788.032","MEAN_MOTION_DDOT":"0.0000000000000","OBJECT_TYPE":"PAYLOAD","COUNTRY_CODE":"US","TLE_LINE2":"2 51967  53.2116  26.3395 0003358 233.4014 294.0176 15.52340305  1303","ELEMENT_SET_NO":"999"},{"CENTER_NAME":"EARTH","TLE_LINE1":"1 51968U 22025N   22240.91667824  .00044912  00000-0  28235-2 0  9995","APOAPSIS":"540.866","MEAN_ANOMALY":"203.1238","TIME_SYSTEM":"UTC","EPHEMERIS_TYPE":"0","MEAN_MOTION":"15.08821992","BSTAR":"0.00282350000000","MEAN_ELEMENT_THEORY":"SGP4","RA_OF_ASC_NODE":"54.6389","PERIAPSIS":"538.734","FILE":"3550014","TLE_LINE2":"2 51968  53.2177  54.6389 0001541  62.6386 203.1238 15.08821992  1301","MEAN_MOTION_DDOT":"0.0000000000000","OBJECT_TYPE":"PAYLOAD","COUNTRY_CODE":"US","ELEMENT_SET_NO":"999","GP_ID":"211213032","MEAN_MOTION_DOT":"0.00044912","SEMIMAJOR_AXIS":"6917.935","ECCENTRICITY":"0.00015410","OBJECT_NAME":"STARLINK-3681","CLASSIFICATION_TYPE":"U","SITE":"AFETR","PERIOD":"95.439","RCS_SIZE":"LARGE","ARG_OF_PERICENTER":"62.6386","EPOCH":"2022-08-28T22:00:00.999936","DECAY_DATE":null,"REV_AT_EPOCH":"130","NORAD_CAT_ID":"51968","INCLINATION":"53.2177","OBJECT_ID":"2022-025N","LAUNCH_DATE":"2022-03-09","REF_FRAME":"TEME"},{"OBJECT_ID":"2022-025P","INCLINATION":"53.2182","REV_AT_EPOCH":"130","NORAD_CAT_ID":"51969","REF_FRAME":"TEME","LAUNCH_DATE":"2022-03-09","CLASSIFICATION_TYPE":"U","OBJECT_NAME":"STARLINK-3680","DECAY_DATE":null,"ARG_OF_PERICENTER":"56.1793","EPOCH":"2022-08-28T22:00:00.999936","PERIOD":"95.439","RCS_SIZE":"LARGE","SITE":"AFETR","ELEMENT_SET_NO":"999","MEAN_MOTION_DDOT":"0.0000000000000","COUNTRY_CODE":"US","OBJECT_TYPE":"PAYLOAD","TLE_LINE2":"2 51969  53.2182  54.6397 0001792  56.1793 129.5814 15.08815030  1302","ECCENTRICITY":"0.00017920","MEAN_MOTION_DOT":"0.00050917","SEMIMAJOR_AXIS":"6917.957","GP_ID":"211213282","MEAN_ANOMALY":"129.5814","TLE_LINE1":"1 51969U 22025P   22240.91667824  .00050917  00000-0  31965-2 0  9992","APOAPSIS":"541.061","CENTER_NAME":"EARTH","FILE":"3550014","PERIAPSIS":"538.582","MEAN_ELEMENT_THEORY":"SGP4","BSTAR":"0.00319650000000","RA_OF_ASC_NODE":"54.6397","TIME_SYSTEM":"UTC","EPHEMERIS_TYPE":"0","MEAN_MOTION":"15.08815030"}];
